[Satellite]
VERSION=1.1
NAME=IRIDIUM 164
NICKNAME=IRIDIUM 164
TLE1=1 43577U 18061J   19316.89845594  .00000039  00000-0  70325-5 0  9998
TLE2=2 43577  86.3962 343.1753 0002396  95.1116 265.0353 14.34215704 68235
STATUS=0
